start=new Date('2022-10-13T00:00:00.000Z').valueOf();
sats=[{"MEAN_ANOMALY":"52.7266","MEAN_ELEMENT_THEORY":"SGP4","MEAN_MOTION_DDOT":"0.0000000000000","TLE_LINE1":"1 53486U 22099X   22285.91667824 -.00057938  00000-0 -45387-2 0  9993","OBJECT_ID":"2022-099X","RCS_SIZE":"LARGE","OBJECT_TYPE":"PAYLOAD","GP_ID":"214925158","REF_FRAME":"TEME","EPOCH":"2022-10-12T22:00:00.999936","MEAN_MOTION":"15.01296624","LAUNCH_DATE":"2022-08-12","SEMIMAJOR_AXIS":"6941.034","PERIAPSIS":"561.174","NORAD_CAT_ID":"53486","EPHEMERIS_TYPE":"0","RA_OF_ASC_NODE":"45.5268","ARG_OF_PERICENTER":"37.5259","OBJECT_NAME":"STARLINK-4431","TIME_SYSTEM":"UTC","ECCENTRICITY":"0.00024850","SITE":"AFWTR","INCLINATION":"97.6556","REV_AT_EPOCH":"130","ELEMENT_SET_NO":"999","CLASSIFICATION_TYPE":"U","BSTAR":"-0.00453870000000","TLE_LINE2":"2 53486  97.6556  45.5268 0002485  37.5259  52.7266 15.01296624  1304","APOAPSIS":"564.624","DECAY_DATE":null,"FILE":"3606891","COUNTRY_CODE":"US","CENTER_NAME":"EARTH","PERIOD":"95.917","MEAN_MOTION_DOT":"-0.00057938"},{"COUNTRY_CODE":"US","FILE":"3606891","DECAY_DATE":null,"APOAPSIS":"564.566","MEAN_MOTION_DOT":"-0.00111815","PERIOD":"95.915","CENTER_NAME":"EARTH","REV_AT_EPOCH":"130","INCLINATION":"97.6557","SITE":"AFWTR","TIME_SYSTEM":"UTC","ECCENTRICITY":"0.00025560","TLE_LINE2":"2 53487  97.6557  45.5287 0002556  40.3435  89.8919 15.01331373  1301","BSTAR":"-0.00882210000000","CLASSIFICATION_TYPE":"U","ELEMENT_SET_NO":"999","PERIAPSIS":"561.018","SEMIMAJOR_AXIS":"6940.927","LAUNCH_DATE":"2022-08-12","MEAN_MOTION":"15.01331373","OBJECT_NAME":"STARLINK-4432","ARG_OF_PERICENTER":"40.3435","RA_OF_ASC_NODE":"45.5287","EPHEMERIS_TYPE":"0","NORAD_CAT_ID":"53487","RCS_SIZE":"LARGE","OBJECT_ID":"2022-099Y","TLE_LINE1":"1 53487U 22099Y   22285.91667824 -.00111815  00000-0 -88221-2 0  9993","MEAN_MOTION_DDOT":"0.0000000000000","MEAN_ELEMENT_THEORY":"SGP4","MEAN_ANOMALY":"89.8919","EPOCH":"2022-10-12T22:00:00.999936","REF_FRAME":"TEME","GP_ID":"214924677","OBJECT_TYPE":"PAYLOAD"},{"REF_FRAME":"TEME","EPOCH":"2022-10-12T22:00:00.999936","GP_ID":"214925259","OBJECT_TYPE":"PAYLOAD","MEAN_MOTION_DDOT":"0.0000000000000","RCS_SIZE":"LARGE","TLE_LINE1":"1 53488U 22099Z   22285.91667824 -.00001590  00000-0 -11918-3 0  9992","OBJECT_ID":"2022-099Z","MEAN_ANOMALY":"62.6352","MEAN_ELEMENT_THEORY":"SGP4","OBJECT_NAME":"STARLINK-4421","ARG_OF_PERICENTER":"37.6361","EPHEMERIS_TYPE":"0","NORAD_CAT_ID":"53488","RA_OF_ASC_NODE":"45.5272","LAUNCH_DATE":"2022-08-12","PERIAPSIS":"561.188","SEMIMAJOR_AXIS":"6941.147","MEAN_MOTION":"15.01259958","BSTAR":"-0.00011918000000","TLE_LINE2":"2 53488  97.6559  45.5272 0002628  37.6361  62.6352 15.01259958  1303","ELEMENT_SET_NO":"999","CLASSIFICATION_TYPE":"U","INCLINATION":"97.6559","REV_AT_EPOCH":"130","ECCENTRICITY":"0.00026280","TIME_SYSTEM":"UTC","SITE":"AFWTR","PERIOD":"95.919","MEAN_MOTION_DOT":"-0.00001590","CENTER_NAME":"EARTH","FILE":"3606891","COUNTRY_CODE":"US","APOAPSIS":"564.836","DECAY_DATE":null},{"COUNTRY_CODE":"US","FILE":"3606891","DECAY_DATE":null,"APOAPSIS":"564.753","MEAN_MOTION_DOT":"-0.00104932","PERIOD":"95.915","CENTER_NAME":"EARTH","REV_AT_EPOCH":"130","INCLINATION":"97.6556","SITE":"AFWTR","TIME_SYSTEM":"UTC","ECCENTRICITY":"0.00028040","TLE_LINE2":"2 53489  97.6556  45.5296 0002804  28.9120 111.3259 15.01326700  1307","BSTAR":"-0.00827160000000","CLASSIFICATION_TYPE":"U","ELEMENT_SET_NO":"999","PERIAPSIS":"560.860","SEMIMAJOR_AXIS":"6940.941","LAUNCH_DATE":"2022-08-12","MEAN_MOTION":"15.01326700","OBJECT_NAME":"STARLINK-4392","ARG_OF_PERICENTER":"28.9120","RA_OF_ASC_NODE":"45.5296","EPHEMERIS_TYPE":"0","NORAD_CAT_ID":"53489","RCS_SIZE":"LARGE","OBJECT_ID":"2022-099AA","TLE_LINE1":"1 53489U 22099AA  22285.91667824 -.00104932  00000-0 -82716-2 0  9990","MEAN_MOTION_DDOT":"0.0000000000000","MEAN_ELEMENT_THEORY":"SGP4","MEAN_ANOMALY":"111.3259","EPOCH":"2022-10-12T22:00:00.999936","REF_FRAME":"TEME","GP_ID":"214924420","OBJECT_TYPE":"PAYLOAD"},{"OBJECT_NAME":"STARLINK-4387","ARG_OF_PERICENTER":"34.9710","EPHEMERIS_TYPE":"0","NORAD_CAT_ID":"53490","RA_OF_ASC_NODE":"45.5285","LAUNCH_DATE":"2022-08-12","PERIAPSIS":"561.191","SEMIMAJOR_AXIS":"6941.106","MEAN_MOTION":"15.01273250","REF_FRAME":"TEME","EPOCH":"2022-10-12T22:00:00.999936","GP_ID":"214925411","OBJECT_TYPE":"PAYLOAD","MEAN_MOTION_DDOT":"0.0000000000000","RCS_SIZE":"LARGE","TLE_LINE1":"1 53490U 22099AB  22285.91667824 -.00022433  00000-0 -17468-2 0  9999","OBJECT_ID":"2022-099AB","MEAN_ANOMALY":"85.2937","MEAN_ELEMENT_THEORY":"SGP4","PERIOD":"95.919","MEAN_MOTION_DOT":"-0.00022433","CENTER_NAME":"EARTH","FILE":"3606891","COUNTRY_CODE":"US","APOAPSIS":"564.751","DECAY_DATE":null,"TLE_LINE2":"2 53490  97.6559  45.5285 0002564  34.9710  85.2937 15.01273250  1308","BSTAR":"-0.00174680000000","ELEMENT_SET_NO":"999","CLASSIFICATION_TYPE":"U","INCLINATION":"97.6559","REV_AT_EPOCH":"130","TIME_SYSTEM":"UTC","ECCENTRICITY":"0.00025640","SITE":"AFWTR"},{"PERIAPSIS":"560.994","SEMIMAJOR_AXIS":"6941.138","LAUNCH_DATE":"2022-08-12","MEAN_MOTION":"15.01262836","OBJECT_NAME":"STARLINK-4450","ARG_OF_PERICENTER":"33.8980","RA_OF_ASC_NODE":"45.5297","EPHEMERIS_TYPE":"0","NORAD_CAT_ID":"53491","RCS_SIZE":"LARGE","OBJECT_ID":"2022-099AC","TLE_LINE1":"1 53491U 22099AC  22285.91667824 -.00006563  00000-0 -50680-3 0  9990","MEAN_MOTION_DDOT":"0.0000000000000","MEAN_ELEMENT_THEORY":"SGP4","MEAN_ANOMALY":"126.3723","EPOCH":"2022-10-12T22:00:00.999936","REF_FRAME":"TEME","GP_ID":"214924260","OBJECT_TYPE":"PAYLOAD","COUNTRY_CODE":"US","FILE":"3606891","DECAY_DATE":null,"APOAPSIS":"565.013","MEAN_MOTION_DOT":"-0.00006563","PERIOD":"95.919","CENTER_NAME":"EARTH","REV_AT_EPOCH":"130","INCLINATION":"97.6555","SITE":"AFWTR","TIME_SYSTEM":"UTC","ECCENTRICITY":"0.00028950","TLE_LINE2":"2 53491  97.6555  45.5297 0002895  33.8980 126.3723 15.01262836  1300","BSTAR":"-0.00050680000000","CLASSIFICATION_TYPE":"U","ELEMENT_SET_NO":"999"},{"RA_OF_ASC_NODE":"45.5282","EPHEMERIS_TYPE":"0","NORAD_CAT_ID":"53492","OBJECT_NAME":"STARLINK-4451","ARG_OF_PERICENTER":"33.8082","MEAN_MOTION":"15.01262034","PERIAPSIS":"560.897","SEMIMAJOR_AXIS":"6941.141","LAUNCH_DATE":"2022-08-12","GP_ID":"214925007","OBJECT_TYPE":"PAYLOAD","EPOCH":"2022-10-12T22:00:00.999936","REF_FRAME":"TEME","MEAN_ELEMENT_THEORY":"SGP4","MEAN_ANOMALY":"105.1408","RCS_SIZE":"LARGE","OBJECT_ID":"2022-099AD","TLE_LINE1":"1 53492U 22099AD  22285.91667824 -.00005082  00000-0 -39127-3 0  9999","MEAN_MOTION_DDOT":"0.0000000000000","CENTER_NAME":"EARTH","MEAN_MOTION_DOT":"-0.00005082","PERIOD":"95.919","DECAY_DATE":null,"APOAPSIS":"565.114","COUNTRY_CODE":"US","FILE":"3606891","CLASSIFICATION_TYPE":"U","ELEMENT_SET_NO":"999","TLE_LINE2":"2 53492  97.6556  45.5282 0003038  33.8082 105.1408 15.01262034  1304","BSTAR":"-0.00039127000000","SITE":"AFWTR","TIME_SYSTEM":"UTC","ECCENTRICITY":"0.00030380","REV_AT_EPOCH":"130","INCLINATION":"97.6556"},{"ARG_OF_PERICENTER":"40.9170","OBJECT_NAME":"STARLINK-4361","RA_OF_ASC_NODE":"45.5298","NORAD_CAT_ID":"53493","EPHEMERIS_TYPE":"0","SEMIMAJOR_AXIS":"6940.786","PERIAPSIS":"560.791","LAUNCH_DATE":"2022-08-12","MEAN_MOTION":"15.01377128","EPOCH":"2022-10-12T22:00:00.999936","REF_FRAME":"TEME","OBJECT_TYPE":"PAYLOAD","GP_ID":"214924839","OBJECT_ID":"2022-099AE","TLE_LINE1":"1 53493U 22099AE  22285.91667824 -.00180516  00000-0 -14366-1 0  9992","RCS_SIZE":"LARGE","MEAN_MOTION_DDOT":"0.0000000000000","MEAN_ELEMENT_THEORY":"SGP4","MEAN_ANOMALY":"137.9739","MEAN_MOTION_DOT":"-0.00180516","PERIOD":"95.912","CENTER_NAME":"EARTH","COUNTRY_CODE":"US","FILE":"3606891","DECAY_DATE":null,"APOAPSIS":"564.510","TLE_LINE2":"2 53493  97.6557  45.5298 0002679  40.9170 137.9739 15.01377128  1301","BSTAR":"-0.01436600000000","CLASSIFICATION_TYPE":"U","ELEMENT_SET_NO":"999","REV_AT_EPOCH":"130","INCLINATION":"97.6557","SITE":"AFWTR","ECCENTRICITY":"0.00026790","TIME_SYSTEM":"UTC"},{"EPOCH":"2022-10-12T22:00:00.999936","REF_FRAME":"TEME","OBJECT_TYPE":"PAYLOAD","GP_ID":"214925159","OBJECT_ID":"2022-099AF","TLE_LINE1":"1 53494U 22099AF  22285.91667824 -.00096083  00000-0 -75652-2 0  9994","RCS_SIZE":"LARGE","MEAN_MOTION_DDOT":"0.0000000000000","MEAN_ELEMENT_THEORY":"SGP4","MEAN_ANOMALY":"115.2469","ARG_OF_PERICENTER":"34.9924","OBJECT_NAME":"STARLINK-4340","RA_OF_ASC_NODE":"45.5299","NORAD_CAT_ID":"53494","EPHEMERIS_TYPE":"0","SEMIMAJOR_AXIS":"6940.956","PERIAPSIS":"560.918","LAUNCH_DATE":"2022-08-12","MEAN_MOTION":"15.01322023","BSTAR":"-0.00756520000000","TLE_LINE2":"2 53494  97.6556  45.5299 0002741  34.9924 115.2469 15.01322023  1305","CLASSIFICATION_TYPE":"U","ELEMENT_SET_NO":"999","REV_AT_EPOCH":"130","INCLINATION":"97.6556","SITE":"AFWTR","ECCENTRICITY":"0.00027410","TIME_SYSTEM":"UTC","MEAN_MOTION_DOT":"-0.00096083","PERIOD":"95.915","CENTER_NAME":"EARTH","COUNTRY_CODE":"US","FILE":"3606891","DECAY_DATE":null,"APOAPSIS":"564.723"},{"LAUNCH_DATE":"2022-08-12","PERIAPSIS":"560.874","SEMIMAJOR_AXIS":"6940.868","MEAN_MOTION":"15.01350566","OBJECT_NAME":"STARLINK-4429","ARG_OF_PERICENTER":"39.4930","EPHEMERIS_TYPE":"0","NORAD_CAT_ID":"53495","RA_OF_ASC_NODE":"45.5298","MEAN_MOTION_DDOT":"0.0000000000000","RCS_SIZE":"LARGE","TLE_LINE1":"1 53495U 22099AG  22285.91667824 -.00141347  00000-0 -11194-1 0  9999","OBJECT_ID":"2022-099AG","MEAN_ANOMALY":"150.7331","MEAN_ELEMENT_THEORY":"SGP4","REF_FRAME":"TEME","EPOCH":"2022-10-12T22:00:00.999936","GP_ID":"214924678","OBJECT_TYPE":"PAYLOAD","FILE":"3606891","COUNTRY_CODE":"US","APOAPSIS":"564.591","DECAY_DATE":null,"PERIOD":"95.914","MEAN_MOTION_DOT":"-0.00141347","CENTER_NAME":"EARTH","INCLINATION":"97.6556","REV_AT_EPOCH":"130","ECCENTRICITY":"0.00026780","TIME_SYSTEM":"UTC","SITE":"AFWTR","BSTAR":"-0.01119400000000","TLE_LINE2":"2 53495  97.6556  45.5298 0002678  39.4930 150.7331 15.01350566  1306","ELEMENT_SET_NO":"999","CLASSIFICATION_TYPE":"U"}];
